TISAT 1                 
1 36799U 10035E   26068.75703561  .00024554  00000+0  91005-3 0  9996
2 36799  98.0645   6.8512 0001343 159.3030 200.8262 15.27628633852505
FLOCK 4G-9              
1 62622U 25009P   26068.80935633  .00010752  00000+0  41817-3 0  9991
2 62622  97.4000 150.6115 0003614 328.2191  31.8829 15.26202239 63696
